GLOBALSTAR M068         
1 32266U 07048D   25107.37388750 -.00000094  00000+0  52793-4 0  9997
2 32266  51.9860 127.6354 0000924   9.0426  95.0276 12.62820958809878
GLOBALSTAR M079         
1 37188U 10054A   25107.59360903 -.00000087  00000+0  95724-4 0  9993
2 37188  52.0053 324.2436 0000973 106.7781 280.4632 12.62273159668808
GLOBALSTAR M074         
1 37189U 10054B   25107.54249348 -.00000081  00000+0  12914-3 0  9991
2 37189  52.0034 323.7327 0000655  92.4889 300.9732 12.62274100669401
GLOBALSTAR M076         
1 37190U 10054C   25107.64807552 -.00000075  00000+0  15967-3 0  9995
2 37190  52.0044 323.5736 0000705 113.2247 282.4637 12.62261107669133
GLOBALSTAR M077         
1 37191U 10054D   25107.64449037 -.00000085  00000+0  10352-3 0  9990
2 37191  52.0068 280.4250 0000796 108.0922 329.8490 12.62273400669507
GLOBALSTAR M075         
1 37192U 10054E   25107.65613730 -.00000079  00000+0  14084-3 0  9994
2 37192  51.9977   5.8394 0000660  79.4620 292.1189 12.62263551668208
GLOBALSTAR M073         
1 37193U 10054F   25107.42378193 -.00000080  00000+0  13101-3 0  9992
2 37193  52.0055 280.3223 0000792 113.1388 280.5264 12.62270584670169
GLOBALSTAR M083         
1 37739U 11033A   25107.53037622 -.00000065  00000+0  21717-3 0  9992
2 37739  51.9852 228.8097 0000792 112.6460 346.4502 12.62262965639198
GLOBALSTAR M088         
1 37740U 11033B   25107.26196744 -.00000083  00000+0  11407-3 0  9990
2 37740  51.9708 135.1684 0000317 102.2305 337.5268 12.62265687634704
GLOBALSTAR M091         
1 37741U 11033C   25107.28033751 -.00000111  00000+0 -41155-4 0  9998
2 37741  51.9979  98.5582 0000563  79.0804  23.3753 12.62267056635490
GLOBALSTAR M085         
1 37742U 11033D   25107.02456264 -.00000093  00000+0  58214-4 0  9991
2 37742  51.9878  50.4282 0000694  75.5085   4.2967 12.62267323635975
GLOBALSTAR M081         
1 37743U 11033E   25107.13968993 -.00000106  00000+0 -14519-4 0  9997
2 37743  51.9970  52.8270 0000605  90.9461  32.0419 12.62262685636139
GLOBALSTAR M089         
1 37744U 11033F   25107.10534877 -.00000077  00000+0  15013-3 0  9990
2 37744  51.9962   7.1727 0000445  81.1180  66.3183 12.62268715636973
GLOBALSTAR M084         
1 38040U 11080A   25106.80566088 -.00000078  00000+0  14649-3 0  9992
2 38040  52.0002 235.3409 0000442 141.5073  22.9215 12.62264940614911
GLOBALSTAR M080         
1 38041U 11080B   25106.85250868 -.00000075  00000+0  16195-3 0  9999
2 38041  52.0055 236.7828 0000692 157.3795 340.7476 12.62291913615183
GLOBALSTAR M082         
1 38042U 11080C   25107.57870118 -.00000065  00000+0  21482-3 0  9990
2 38042  52.0065 190.0129 0000713  91.1655  48.1145 12.62265348615843
GLOBALSTAR M092         
1 38043U 11080D   25107.61708920 -.00000058  00000+0  25425-3 0  9990
2 38043  52.0079 280.2691 0000717 102.5211 331.7097 12.62263187614300
GLOBALSTAR M090         
1 38044U 11080E   25107.60620797 -.00000061  00000+0  23790-3 0  9992
2 38044  51.9872 183.8155 0000574 112.7802  31.3466 12.62269365615963
GLOBALSTAR M086         
1 38045U 11080F   25107.63368149 -.00000076  00000+0  15348-3 0  9992
2 38045  51.9886 184.2781 0001190 167.1557 342.2910 12.62269411615910
GLOBALSTAR M097         
1 39072U 13005A   25106.99391617 -.00000123  00000+0 -10771-3 0  9995
2 39072  52.0026 100.7084 0000451 103.5051 256.5866 12.62271708563089
GLOBALSTAR M093         
1 39073U 13005B   25106.96725697 -.00000107  00000+0 -17346-4 0  9990
2 39073  51.9794  94.1884 0000428  95.9402 264.1513 12.62263806563031
GLOBALSTAR M094         
1 39074U 13005C   25107.04659338 -.00000088  00000+0  86189-4 0  9997
2 39074  51.9988   8.2704 0000907  94.6554 265.4416 12.62269671564651
GLOBALSTAR M096         
1 39075U 13005D   25107.29740783 -.00000096  00000+0  42716-4 0  9997
2 39075  52.0083  55.9717 0000726  83.7312 276.3637 12.62270207563600
GLOBALSTAR M078         
1 39076U 13005E   25107.50815187 -.00000098  00000+0  33685-4 0  9990
2 39076  51.9850 139.9232 0001103  59.4068 300.6907 12.62261499562258
GLOBALSTAR M095         
1 39077U 13005F   25107.53475870 -.00000094  00000+0  56348-4 0  9992
2 39077  51.9775 137.0703 0000760  88.4192 271.6762 12.62269230562117
GLOBALSTAR M087         
1 52888U 22064A   25107.40701998 -.00000086  00000+0  96940-4 0  9994
2 52888  51.9788 278.8625 0000937 100.4850 259.6122 12.62270957137364
